{"type": "FeatureCollection", "features": [ {"type": "Feature", "properties": {"norad_id": 66650, "name": "BEE-1000", "group": "last-30-days", "lat": 76.52428879902159, "lon": -122.72719392311734, "alt_km": 592.84363730317, "timestamp": "2025-12-10T14:53:35.947565+00:00", "meta": {"OBJECT_NAME": "BEE-1000", "OBJECT_ID": "2025-274A", "EPOCH": "2025-12-10T06:29:25.679040", "MEAN_MOTION": 14.91647079, "ECCENTRICITY": 0.00104233, "INCLINATION": 97.7386, "RA_OF_ASC_NODE": 271.5034, "ARG_OF_PERICENTER": 260.9194, "MEAN_ANOMALY": 99.0845, "EPHEMERIS_TYPE": 0, "CLASSIFICATION_TYPE": "U", "NORAD_CAT_ID": 66650, "ELEMENT_SET_NO": 999, "REV_AT_EPOCH": 203, "BSTAR": 0.0002858281, "MEAN_MOTION_DOT": 2.819e-05, "MEAN_MOTION_DDOT": 0}, "tle": {"line1": "1 66650U 25274A   25344.27043610  .00002819  00000+0  28583-3 0  9992", "line2": "2 66650  97.7386 271.5034 0010423 260.9194  99.0845 14.91647079  2036"}}, "geometry": {"type": "Point", "coordinates": [-122.72719392311734, 76.52428879902159]}}, {"type": "Feature", "properties": {"norad_id": 66651, "name": "2025-274B", "group": "last-30-days", "lat": 79.51957099973471, "lon": -135.4623055244851, "alt_km": 592.505840696962, "timestamp": "2025-12-10T14:53:35.947573+00:00", "meta": {"OBJECT_NAME": "2025-274B", "OBJECT_ID": "2025-274B", "EPOCH": "2025-12-10T06:28:23.983392", "MEAN_MOTION": 14.91766055, "ECCENTRICITY": 0.00107188, "INCLINATION": 97.7379, "RA_OF_ASC_NODE": 271.5037, "ARG_OF_PERICENTER": 260.1005, "MEAN_ANOMALY": 99.9004, "EPHEMERIS_TYPE": 0, "CLASSIFICATION_TYPE": "U", "NORAD_CAT_ID": 66651, "ELEMENT_SET_NO": 999, "REV_AT_EPOCH": 203, "BSTAR": 0.00060823007, "MEAN_MOTION_DOT": 6.082e-05, "MEAN_MOTION_DDOT": 0}, "tle": {"line1": "1 66651U 25274B   25344.26972203  .00006082  00000+0  60823-3 0  9990", "line2": "2 66651  97.7379 271.5037 0010718 260.1005  99.9004 14.91766055  2034"}}, "geometry": {"type": "Point", "coordinates": [-135.4623055244851, 79.51957099973471]}}, {"type": "Feature", "properties": {"norad_id": 66652, "name": "2025-274C", "group": "last-30-days", "lat": 82.254739448508, "lon": -177.02936899066412, "alt_km": 591.8419595816049, "timestamp": "2025-12-10T14:53:35.947582+00:00", "meta": {"OBJECT_NAME": "2025-274C", "OBJECT_ID": "2025-274C", "EPOCH": "2025-12-10T06:26:34.905120", "MEAN_MOTION": 14.91879682, "ECCENTRICITY": 0.00104169, "INCLINATION": 97.7386, "RA_OF_ASC_NODE": 271.5062, "ARG_OF_PERICENTER": 266.9671, "MEAN_ANOMALY": 93.0356, "EPHEMERIS_TYPE": 0, "CLASSIFICATION_TYPE": "U", "NORAD_CAT_ID": 66652, "ELEMENT_SET_NO": 999, "REV_AT_EPOCH": 203, "BSTAR": 0.00038515182, "MEAN_MOTION_DOT": 3.84e-05, "MEAN_MOTION_DDOT": 0}, "tle": {"line1": "1 66652U 25274C   25344.26845955  .00003840  00000+0  38515-3 0  9996", "line2": "2 66652  97.7386 271.5062 0010416 266.9671  93.0356 14.91879682  2035"}}, "geometry": {"type": "Point", "coordinates": [-177.02936899066412, 82.254739448508]}}, {"type": "Feature", "properties": {"norad_id": 66653, "name": "2025-274D", "group": "last-30-days", "lat": 82.25446591769165, "lon": -179.40222144658927, "alt_km": 592.3515617343228, "timestamp": "2025-12-10T14:53:35.947592+00:00", "meta": {"OBJECT_NAME": "2025-274D", "OBJECT_ID": "2025-274D", "EPOCH": "2025-12-10T06:26:29.544000", "MEAN_MOTION": 14.91883821, "ECCENTRICITY": 0.00112606, "INCLINATION": 97.7385, "RA_OF_ASC_NODE": 271.5059, "ARG_OF_PERICENTER": 262.9583, "MEAN_ANOMALY": 97.0356, "EPHEMERIS_TYPE": 0, "CLASSIFICATION_TYPE": "U", "NORAD_CAT_ID": 66653, "ELEMENT_SET_NO": 999, "REV_AT_EPOCH": 203, "BSTAR": 0.00038959896, "MEAN_MOTION_DOT": 3.887e-05, "MEAN_MOTION_DDOT": 0}, "tle": {"line1": "1 66653U 25274D   25344.26839750  .00003887  00000+0  38960-3 0  9998", "line2": "2 66653  97.7385 271.5059 0011260 262.9583  97.0356 14.91883821  2031"}}, "geometry": {"type": "Point", "coordinates": [-179.40222144658927, 82.25446591769165]}}, {"type": "Feature", "properties": {"norad_id": 66654, "name": "JACK E", "group": "last-30-days", "lat": 78.50741228430763, "lon": 133.832895260609, "alt_km": 592.1705564685053, "timestamp": "2025-12-10T14:53:35.947601+00:00", "meta": {"OBJECT_NAME": "JACK E", "OBJECT_ID": "2025-274E", "EPOCH": "2025-12-10T04:47:44.383200", "MEAN_MOTION": 14.92058752, "ECCENTRICITY": 0.00118572, "INCLINATION": 97.7387, "RA_OF_ASC_NODE": 271.4426, "ARG_OF_PERICENTER": 264.8886, "MEAN_ANOMALY": 95.098, "EPHEMERIS_TYPE": 0, "CLASSIFICATION_TYPE": "U", "NORAD_CAT_ID": 66654, "ELEMENT_SET_NO": 999, "REV_AT_EPOCH": 202, "BSTAR": 0.00043057181, "MEAN_MOTION_DOT": 4.321e-05, "MEAN_MOTION_DDOT": 0}, "tle": {"line1": "1 66654U 25274E   25344.19981925  .00004321  00000+0  43057-3 0  9990", "line2": "2 66654  97.7387 271.4426 0011857 264.8886  95.0980 14.92058752  2028"}}, "geometry": {"type": "Point", "coordinates": [133.832895260609, 78.50741228430763]}}, {"type": "Feature", "properties": {"norad_id": 66655, "name": "2025-274F", "group": "last-30-days", "lat": 67.27995634569048, "lon": 110.79448743892392, "alt_km": 586.8443829465605, "timestamp": "2025-12-10T14:53:35.947611+00:00", "meta": {"OBJECT_NAME": "2025-274F", "OBJECT_ID": "2025-274F", "EPOCH": "2025-12-08T18:57:10.718496", "MEAN_MOTION": 14.92504145, "ECCENTRICITY": 0.00054909, "INCLINATION": 97.7329, "RA_OF_ASC_NODE": 270.0601, "ARG_OF_PERICENTER": 323.8556, "MEAN_ANOMALY": 36.2292, "EPHEMERIS_TYPE": 0, "CLASSIFICATION_TYPE": "U", "NORAD_CAT_ID": 66655, "ELEMENT_SET_NO": 999, "REV_AT_EPOCH": 181, "BSTAR": 0.001516128, "MEAN_MOTION_DOT": 0.00015539, "MEAN_MOTION_DDOT": 0}, "tle": {"line1": "1 66655U 25274F   25342.78970739  .00015539  00000+0  15161-2 0  9992", "line2": "2 66655  97.7329 270.0601 0005490 323.8556  36.2292 14.92504145  1812"}}, "geometry": {"type": "Point", "coordinates": [110.79448743892392, 67.27995634569048]}}, {"type": "Feature", "properties": {"norad_id": 66656, "name": "2025-274G", "group": "last-30-days", "lat": 70.74622521436173, "lon": 114.77053749395279, "alt_km": 592.1132243029479, "timestamp": "2025-12-10T14:53:35.947622+00:00", "meta": {"OBJECT_NAME": "2025-274G", "OBJECT_ID": "2025-274G", "EPOCH": "2025-12-10T06:21:54.862848", "MEAN_MOTION": 14.92248536, "ECCENTRICITY": 0.0012459, "INCLINATION": 97.7384, "RA_OF_ASC_NODE": 271.5102, "ARG_OF_PERICENTER": 266.4549, "MEAN_ANOMALY": 93.5245, "EPHEMERIS_TYPE": 0, "CLASSIFICATION_TYPE": "U", "NORAD_CAT_ID": 66656, "ELEMENT_SET_NO": 999, "REV_AT_EPOCH": 203, "BSTAR": 0.00046580465, "MEAN_MOTION_DOT": 4.703e-05, "MEAN_MOTION_DDOT": 0}, "tle": {"line1": "1 66656U 25274G   25344.26521832  .00004703  00000+0  46580-3 0  9995", "line2": "2 66656  97.7384 271.5102 0012459 266.4549  93.5245 14.92248536  2031"}}, "geometry": {"type": "Point", "coordinates": [114.77053749395279, 70.74622521436173]}}, {"type": "Feature", "properties": {"norad_id": 66657, "name": "SPIRONE", "group": "last-30-days", "lat": 62.278620492309926, "lon": 106.85941138410044, "alt_km": 591.7177641198068, "timestamp": "2025-12-10T14:53:35.947632+00:00", "meta": {"OBJECT_NAME": "SPIRONE", "OBJECT_ID": "2025-274H", "EPOCH": "2025-12-10T06:19:34.492224", "MEAN_MOTION": 14.92428036, "ECCENTRICITY": 0.00108972, "INCLINATION": 97.7383, "RA_OF_ASC_NODE": 271.5118, "ARG_OF_PERICENTER": 285.2569, "MEAN_ANOMALY": 74.7446, "EPHEMERIS_TYPE": 0, "CLASSIFICATION_TYPE": "U", "NORAD_CAT_ID": 66657, "ELEMENT_SET_NO": 999, "REV_AT_EPOCH": 203, "BSTAR": 0.00046152393, "MEAN_MOTION_DOT": 4.678e-05, "MEAN_MOTION_DDOT": 0}, "tle": {"line1": "1 66657U 25274H   25344.26359366  .00004678  00000+0  46152-3 0  9993", "line2": "2 66657  97.7383 271.5118 0010897 285.2569  74.7446 14.92428036  2032"}}, "geometry": {"type": "Point", "coordinates": [106.85941138410044, 62.278620492309926]}}, {"type": "Feature", "properties": {"norad_id": 66658, "name": "2025-274J", "group": "last-30-days", "lat": 53.82507454894672, "lon": 102.58384428114368, "alt_km": 592.3824443031299, "timestamp": "2025-12-10T14:53:35.947641+00:00", "meta": {"OBJECT_NAME": "2025-274J", "OBJECT_ID": "2025-274J", "EPOCH": "2025-12-10T04:40:45.113376", "MEAN_MOTION": 14.9259932, "ECCENTRICITY": 0.00114975, "INCLINATION": 97.7384, "RA_OF_ASC_NODE": 271.4482, "ARG_OF_PERICENTER": 288.6071, "MEAN_ANOMALY": 71.3899, "EPHEMERIS_TYPE": 0, "CLASSIFICATION_TYPE": "U", "NORAD_CAT_ID": 66658, "ELEMENT_SET_NO": 999, "REV_AT_EPOCH": 202, "BSTAR": 0.00043925478, "MEAN_MOTION_DOT": 4.47e-05, "MEAN_MOTION_DDOT": 0}, "tle": {"line1": "1 66658U 25274J   25344.19496659  .00004470  00000+0  43925-3 0  9998", "line2": "2 66658  97.7384 271.4482 0011497 288.6071  71.3899 14.92599320  2028"}}, "geometry": {"type": "Point", "coordinates": [102.58384428114368, 53.82507454894672]}}, {"type": "Feature", "properties": {"norad_id": 66659, "name": "JACK K", "group": "last-30-days", "lat": 44.721545472318184, "lon": 99.61011280506551, "alt_km": 593.0979900366274, "timestamp": "2025-12-10T14:53:35.947650+00:00", "meta": {"OBJECT_NAME": "JACK K", "OBJECT_ID": "2025-274K", "EPOCH": "2025-12-10T06:14:51.182304", "MEAN_MOTION": 14.92785362, "ECCENTRICITY": 0.00122072, "INCLINATION": 97.7384, "RA_OF_ASC_NODE": 271.5167, "ARG_OF_PERICENTER": 289.7388, "MEAN_ANOMALY": 70.2514, "EPHEMERIS_TYPE": 0, "CLASSIFICATION_TYPE": "U", "NORAD_CAT_ID": 66659, "ELEMENT_SET_NO": 999, "REV_AT_EPOCH": 203, "BSTAR": 0.00042742382, "MEAN_MOTION_DOT": 4.369e-05, "MEAN_MOTION_DDOT": 0}, "tle": {"line1": "1 66659U 25274K   25344.26031461  .00004369  00000+0  42742-3 0  9996", "line2": "2 66659  97.7384 271.5167 0012207 289.7388  70.2514 14.92785362  2039"}}, "geometry": {"type": "Point", "coordinates": [99.61011280506551, 44.721545472318184]}}]}